STARLINK-32132          
1 60334U 24136F   26068.43791057 -.00004165  00000+0 -12852-3 0  9998
2 60334  53.1600  77.0019 0001013  72.7160 287.3952 15.30217391 89628
YAOGAN-43 01D           
1 60461U 24148D   26068.43560480  .00010676  00000+0  37766-3 0  9999
2 60461  35.0010  61.7102 0002556 326.2473  33.8080 15.28369377 87008
